CCSDS_OMM_VERS = 2.0
CREATION_DATE  = 
ORIGINATOR     = 

OBJECT_NAME    = STARLINK-36616
OBJECT_ID      = 2026-022AA
CENTER_NAME    = EARTH
REF_FRAME      = TEME
TIME_SYSTEM    = UTC
MEAN_ELEMENT_THEORY = SGP/SGP4

EPOCH          = 2026-02-13T12:00:02.998944
MEAN_MOTION    = 15.86662206
ECCENTRICITY   = .0001307
INCLINATION    = 97.2790
RA_OF_ASC_NODE = 77.3092
ARG_OF_PERICENTER = 97.1313
MEAN_ANOMALY   = 230.4915

EPHEMERIS_TYPE = 0
CLASSIFICATION_TYPE = U
NORAD_CAT_ID   = 67672
ELEMENT_SET_NO = 999
REV_AT_EPOCH   = 300
BSTAR          = -.75688E-2
MEAN_MOTION_DOT = -.1666862E-1
MEAN_MOTION_DDOT = 0

CCSDS_OMM_VERS = 2.0
CREATION_DATE  = 
ORIGINATOR     = 

OBJECT_NAME    = COSMOS 2600
OBJECT_ID      = 2026-023A
CENTER_NAME    = EARTH
REF_FRAME      = TEME
TIME_SYSTEM    = UTC
MEAN_ELEMENT_THEORY = SGP/SGP4

EPOCH          = 2026-02-13T09:01:41.977920
MEAN_MOTION    = 15.82100832
ECCENTRICITY   = .0001891
INCLINATION    = 96.6498
RA_OF_ASC_NODE = 120.7804
ARG_OF_PERICENTER = 63.6861
MEAN_ANOMALY   = 296.4603

EPHEMERIS_TYPE = 0
CLASSIFICATION_TYPE = U
NORAD_CAT_ID   = 67674
ELEMENT_SET_NO = 999
REV_AT_EPOCH   = 120
BSTAR          = .36219E-3
MEAN_MOTION_DOT = .74082E-3
MEAN_MOTION_DDOT = 0

CCSDS_OMM_VERS = 2.0
CREATION_DATE  = 
ORIGINATOR     = 

OBJECT_NAME    = 2026-023B
OBJECT_ID      = 2026-023B
CENTER_NAME    = EARTH
REF_FRAME      = TEME
TIME_SYSTEM    = UTC
MEAN_ELEMENT_THEORY = SGP/SGP4

EPOCH          = 2026-02-13T12:52:27.448320
MEAN_MOTION    = 15.22379198
ECCENTRICITY   = .0017468
INCLINATION    = 96.6411
RA_OF_ASC_NODE = 120.2857
ARG_OF_PERICENTER = 216.9340
MEAN_ANOMALY   = 143.0697

EPHEMERIS_TYPE = 0
CLASSIFICATION_TYPE = U
NORAD_CAT_ID   = 67675
ELEMENT_SET_NO = 999
REV_AT_EPOCH   = 118
BSTAR          = .42443E-3
MEAN_MOTION_DOT = .9785E-4
MEAN_MOTION_DDOT = 0

CCSDS_OMM_VERS = 2.0
CREATION_DATE  = 
ORIGINATOR     = 

OBJECT_NAME    = 2026-023C
OBJECT_ID      = 2026-023C
CENTER_NAME    = EARTH
REF_FRAME      = TEME
TIME_SYSTEM    = UTC
MEAN_ELEMENT_THEORY = SGP/SGP4

EPOCH          = 2026-02-13T12:52:04.014048
MEAN_MOTION    = 15.22447416
ECCENTRICITY   = .0018666
INCLINATION    = 96.6446
RA_OF_ASC_NODE = 120.2978
ARG_OF_PERICENTER = 206.4227
MEAN_ANOMALY   = 153.6061

EPHEMERIS_TYPE = 0
CLASSIFICATION_TYPE = U
NORAD_CAT_ID   = 67676
ELEMENT_SET_NO = 999
REV_AT_EPOCH   = 134
BSTAR          = .54481E-3
MEAN_MOTION_DOT = .12614E-3
MEAN_MOTION_DDOT = 0

CCSDS_OMM_VERS = 2.0
CREATION_DATE  = 
ORIGINATOR     = 

OBJECT_NAME    = 2026-023D
OBJECT_ID      = 2026-023D
CENTER_NAME    = EARTH
REF_FRAME      = TEME
TIME_SYSTEM    = UTC
MEAN_ELEMENT_THEORY = SGP/SGP4

EPOCH          = 2026-02-13T12:52:51.775968
MEAN_MOTION    = 15.22323599
ECCENTRICITY   = .0018793
INCLINATION    = 96.6478
RA_OF_ASC_NODE = 120.2807
ARG_OF_PERICENTER = 211.7052
MEAN_ANOMALY   = 148.3056

EPHEMERIS_TYPE = 0
CLASSIFICATION_TYPE = U
NORAD_CAT_ID   = 67677
ELEMENT_SET_NO = 999
REV_AT_EPOCH   = 117
BSTAR          = .49501E-3
MEAN_MOTION_DOT = .11413E-3
MEAN_MOTION_DDOT = 0

CCSDS_OMM_VERS = 2.0
CREATION_DATE  = 
ORIGINATOR     = 

OBJECT_NAME    = 2026-023E
OBJECT_ID      = 2026-023E
CENTER_NAME    = EARTH
REF_FRAME      = TEME
TIME_SYSTEM    = UTC
MEAN_ELEMENT_THEORY = SGP/SGP4

EPOCH          = 2026-02-13T12:52:16.777056
MEAN_MOTION    = 15.22418899
ECCENTRICITY   = .0018649
INCLINATION    = 96.6370
RA_OF_ASC_NODE = 120.2863
ARG_OF_PERICENTER = 211.0613
MEAN_ANOMALY   = 148.9524

EPHEMERIS_TYPE = 0
CLASSIFICATION_TYPE = U
NORAD_CAT_ID   = 67678
ELEMENT_SET_NO = 999
REV_AT_EPOCH   = 117
BSTAR          = .56641E-3
MEAN_MOTION_DOT = .13106E-3
MEAN_MOTION_DDOT = 0

CCSDS_OMM_VERS = 2.0
CREATION_DATE  = 
ORIGINATOR     = 

OBJECT_NAME    = 2026-023F
OBJECT_ID      = 2026-023F
CENTER_NAME    = EARTH
REF_FRAME      = TEME
TIME_SYSTEM    = UTC
MEAN_ELEMENT_THEORY = SGP/SGP4

EPOCH          = 2026-02-13T00:14:05.938944
MEAN_MOTION    = 15.22533409
ECCENTRICITY   = .00205659
INCLINATION    = 96.6376
RA_OF_ASC_NODE = 122.3180
ARG_OF_PERICENTER = 207.5326
MEAN_ANOMALY   = 152.4825

EPHEMERIS_TYPE = 0
CLASSIFICATION_TYPE = U
NORAD_CAT_ID   = 67679
ELEMENT_SET_NO = 999
REV_AT_EPOCH   = 108
BSTAR          = .52598108E-3
MEAN_MOTION_DOT = .12219E-3
MEAN_MOTION_DDOT = 0

CCSDS_OMM_VERS = 2.0
CREATION_DATE  = 
ORIGINATOR     = 

OBJECT_NAME    = 2026-023H
OBJECT_ID      = 2026-023H
CENTER_NAME    = EARTH
REF_FRAME      = TEME
TIME_SYSTEM    = UTC
MEAN_ELEMENT_THEORY = SGP/SGP4

EPOCH          = 2026-02-11T18:15:54.484128
MEAN_MOTION    = 15.22485070
ECCENTRICITY   = .0021935
INCLINATION    = 96.6434
RA_OF_ASC_NODE = 121.2090
ARG_OF_PERICENTER = 207.5112
MEAN_ANOMALY   = 152.4967

EPHEMERIS_TYPE = 0
CLASSIFICATION_TYPE = U
NORAD_CAT_ID   = 67681
ELEMENT_SET_NO = 999
REV_AT_EPOCH   = 89
BSTAR          = .13313E-3
MEAN_MOTION_DOT = .3043E-4
MEAN_MOTION_DDOT = 0

CCSDS_OMM_VERS = 2.0
CREATION_DATE  = 
ORIGINATOR     = 

OBJECT_NAME    = 2026-023J
OBJECT_ID      = 2026-023J
CENTER_NAME    = EARTH
REF_FRAME      = TEME
TIME_SYSTEM    = UTC
MEAN_ELEMENT_THEORY = SGP/SGP4

EPOCH          = 2026-02-12T11:36:49.416192
MEAN_MOTION    = 15.22559272
ECCENTRICITY   = .00223262
INCLINATION    = 96.6404
RA_OF_ASC_NODE = 121.8631
ARG_OF_PERICENTER = 202.1000
MEAN_ANOMALY   = 157.9278

EPHEMERIS_TYPE = 0
CLASSIFICATION_TYPE = U
NORAD_CAT_ID   = 67682
ELEMENT_SET_NO = 999
REV_AT_EPOCH   = 100
BSTAR          = .6592174E-3
MEAN_MOTION_DOT = .15363E-3
MEAN_MOTION_DDOT = 0

CCSDS_OMM_VERS = 2.0
CREATION_DATE  = 
ORIGINATOR     = 

OBJECT_NAME    = ISS OBJECT XZ
OBJECT_ID      = 1998-067XZ
CENTER_NAME    = EARTH
REF_FRAME      = TEME
TIME_SYSTEM    = UTC
MEAN_ELEMENT_THEORY = SGP/SGP4

EPOCH          = 2026-02-13T11:57:23.736096
MEAN_MOTION    = 15.49863173
ECCENTRICITY   = .0010698
INCLINATION    = 51.6300
RA_OF_ASC_NODE = 191.8659
ARG_OF_PERICENTER = 107.9097
MEAN_ANOMALY   = 252.3059

EPHEMERIS_TYPE = 0
CLASSIFICATION_TYPE = U
NORAD_CAT_ID   = 67683
ELEMENT_SET_NO = 999
REV_AT_EPOCH   = 103
BSTAR          = .68337E-3
MEAN_MOTION_DOT = .38624E-3
MEAN_MOTION_DDOT = 0

CCSDS_OMM_VERS = 2.0
CREATION_DATE  = 
ORIGINATOR     = 

OBJECT_NAME    = GXIBA-1
OBJECT_ID      = 1998-067YA
CENTER_NAME    = EARTH
REF_FRAME      = TEME
TIME_SYSTEM    = UTC
MEAN_ELEMENT_THEORY = SGP/SGP4

EPOCH          = 2026-02-13T11:53:15.138240
MEAN_MOTION    = 15.50625182
ECCENTRICITY   = .0012438
INCLINATION    = 51.6297
RA_OF_ASC_NODE = 191.8480
ARG_OF_PERICENTER = 102.1044
MEAN_ANOMALY   = 258.1339

EPHEMERIS_TYPE = 0
CLASSIFICATION_TYPE = U
NORAD_CAT_ID   = 67684
ELEMENT_SET_NO = 999
REV_AT_EPOCH   = 103
BSTAR          = .12378E-2
MEAN_MOTION_DOT = .72637E-3
MEAN_MOTION_DDOT = 0

