STARLINK-36616          
1 67672U 26022AA  26044.50003471 -.01666862  00000+0 -75688-2 0  9998
2 67672  97.2790  77.3092 0001307  97.1313 230.4915 15.86662206  3006
COSMOS 2600             
1 67674U 26023A   26044.37618030  .00074082  00000+0  36219-3 0  9991
2 67674  96.6498 120.7804 0001891  63.6861 296.4603 15.82100832  1208
2026-023B               
1 67675U 26023B   26044.53642880  .00009785  00000+0  42443-3 0  9994
2 67675  96.6411 120.2857 0017468 216.9340 143.0697 15.22379198  1183
2026-023C               
1 67676U 26023C   26044.53615757  .00012614  00000+0  54481-3 0  9998
2 67676  96.6446 120.2978 0018666 206.4227 153.6061 15.22447416  1344
2026-023D               
1 67677U 26023D   26044.53671037  .00011413  00000+0  49501-3 0  9995
2 67677  96.6478 120.2807 0018793 211.7052 148.3056 15.22323599  1178
2026-023E               
1 67678U 26023E   26044.53630529  .00013106  00000+0  56641-3 0  9991
2 67678  96.6370 120.2863 0018649 211.0613 148.9524 15.22418899  1172
2026-023F               
1 67679U 26023F   26044.00979096  .00012219  00000+0  52598-3 0  9990
2 67679  96.6376 122.3180 0020565 207.5326 152.4825 15.22533409  1084
2026-023H               
1 67681U 26023H   26042.76104727  .00003043  00000+0  13313-3 0  9992
2 67681  96.6434 121.2090 0021935 207.5112 152.4967 15.22485070   890
2026-023J               
1 67682U 26023J   26043.48390528  .00015363  00000+0  65922-3 0  9990
2 67682  96.6404 121.8631 0022326 202.1000 157.9278 15.22559272  1002
ISS OBJECT XZ           
1 67683U 98067XZ  26044.49819139  .00038624  00000+0  68337-3 0  9992
2 67683  51.6300 191.8659 0010698 107.9097 252.3059 15.49863173  1030
GXIBA-1                 
1 67684U 98067YA  26044.49531410  .00072637  00000+0  12378-2 0  9991
2 67684  51.6297 191.8480 0012438 102.1044 258.1339 15.50625182  1034
